{
  "type": "FeatureCollection",
  "features": [
    {
      "type": "Feature",
      "properties": {
        "norad_id": 30144,
        "name": "FENGYUN 1C DEB",
        "group": "fengyun-1c-debris",
        "lat": -77.36417475430368,
        "lon": 20.327557325071055,
        "alt_km": 845.371282438713,
        "timestamp": "2025-12-08T08:59:01.039986+00:00",
        "meta_object_name": "FENGYUN 1C DEB",
        "meta_object_id": "1999-025SZ",
        "meta_epoch": "2025-12-07T23:16:47.193888",
        "meta_mean_motion": 13.91806664,
        "meta_eccentricity": 0.01259025,
        "meta_inclination": 99.0098,
        "meta_ra_of_asc_node": 334.8853,
        "meta_arg_of_pericenter": 303.9139,
        "meta_mean_anomaly": 110.7956,
        "meta_ephemeris_type": 0,
        "meta_classification_type": "U",
        "meta_norad_cat_id": 30144,
        "meta_element_set_no": 999,
        "meta_rev_at_epoch": 95774,
        "meta_bstar": 0.00082658484,
        "meta_mean_motion_dot": 1.078e-05,
        "meta_mean_motion_ddot": 0,
        "tle_line1": "1 30144U 99025SZ  25341.96999067  .00001078  00000+0  82658-3 0  9994",
        "tle_line2": "2 30144  99.0098 334.8853 0125902 303.9139 110.7956 13.91806664957745"
      },
      "geometry": {
        "type": "Point",
        "coordinates": [
          20.327557325071055,
          -77.36417475430368
        ]
      }
    },
    {
      "type": "Feature",
      "properties": {
        "norad_id": 30145,
        "name": "FENGYUN 1C DEB",
        "group": "fengyun-1c-debris",
        "lat": 5.693230161016008,
        "lon": 90.85966670238517,
        "alt_km": 908.193397114911,
        "timestamp": "2025-12-08T08:59:01.039997+00:00",
        "meta_object_name": "FENGYUN 1C DEB",
        "meta_object_id": "1999-025TA",
        "meta_epoch": "2025-12-07T21:38:00.151296",
        "meta_mean_motion": 14.13938096,
        "meta_eccentricity": 0.00921929,
        "meta_inclination": 99.2706,
        "meta_ra_of_asc_node": 91.3024,
        "meta_arg_of_pericenter": 162.0485,
        "meta_mean_anomaly": 318.3246,
        "meta_ephemeris_type": 0,
        "meta_classification_type": "U",
        "meta_norad_cat_id": 30145,
        "meta_element_set_no": 999,
        "meta_rev_at_epoch": 96127,
        "meta_bstar": 0.0041349914,
        "meta_mean_motion_dot": 8.134e-05,
        "meta_mean_motion_ddot": 0,
        "tle_line1": "1 30145U 99025TA  25341.90139064  .00008134  00000+0  41350-2 0  9995",
        "tle_line2": "2 30145  99.2706  91.3024 0092192 162.0485 318.3246 14.13938096961272"
      },
      "geometry": {
        "type": "Point",
        "coordinates": [
          90.85966670238517,
          5.693230161016008
        ]
      }
    },
    {
      "type": "Feature",
      "properties": {
        "norad_id": 30146,
        "name": "FENGYUN 1C DEB",
        "group": "fengyun-1c-debris",
        "lat": 41.42735499629401,
        "lon": 135.4669017065815,
        "alt_km": 941.6323358534919,
        "timestamp": "2025-12-08T08:59:01.040010+00:00",
        "meta_object_name": "FENGYUN 1C DEB",
        "meta_object_id": "1999-025TB",
        "meta_epoch": "2025-12-07T21:24:52.624800",
        "meta_mean_motion": 13.86586901,
        "meta_eccentricity": 0.01787436,
        "meta_inclination": 98.02,
        "meta_ra_of_asc_node": 142.2001,
        "meta_arg_of_pericenter": 136.2973,
        "meta_mean_anomaly": 22.8836,
        "meta_ephemeris_type": 0,
        "meta_classification_type": "U",
        "meta_norad_cat_id": 30146,
        "meta_element_set_no": 999,
        "meta_rev_at_epoch": 95350,
        "meta_bstar": 0.0010266883,
        "meta_mean_motion_dot": 1.32e-05,
        "meta_mean_motion_ddot": 0,
        "tle_line1": "1 30146U 99025TB  25341.89227575  .00001320  00000+0  10267-2 0  9992",
        "tle_line2": "2 30146  98.0200 142.2001 0178743 136.2973  22.8836 13.86586901953504"
      },
      "geometry": {
        "type": "Point",
        "coordinates": [
          135.4669017065815,
          41.42735499629401
        ]
      }
    },
    {
      "type": "Feature",
      "properties": {
        "norad_id": 30148,
        "name": "FENGYUN 1C DEB",
        "group": "fengyun-1c-debris",
        "lat": 38.15643156696661,
        "lon": 123.98075124013963,
        "alt_km": 1027.9749369248511,
        "timestamp": "2025-12-08T08:59:01.040021+00:00",
        "meta_object_name": "FENGYUN 1C DEB",
        "meta_object_id": "1999-025TD",
        "meta_epoch": "2025-12-07T23:00:33.966144",
        "meta_mean_motion": 13.88469841,
        "meta_eccentricity": 0.01348931,
        "meta_inclination": 99.545,
        "meta_ra_of_asc_node": 131.1521,
        "meta_arg_of_pericenter": 209.3333,
        "meta_mean_anomaly": 273.6083,
        "meta_ephemeris_type": 0,
        "meta_classification_type": "U",
        "meta_norad_cat_id": 30148,
        "meta_element_set_no": 999,
        "meta_rev_at_epoch": 95450,
        "meta_bstar": 0.0013681361,
        "meta_mean_motion_dot": 1.719e-05,
        "meta_mean_motion_ddot": 0,
        "tle_line1": "1 30148U 99025TD  25341.95872646  .00001719  00000+0  13681-2 0  9991",
        "tle_line2": "2 30148  99.5450 131.1521 0134893 209.3333 273.6083 13.88469841954509"
      },
      "geometry": {
        "type": "Point",
        "coordinates": [
          123.98075124013963,
          38.15643156696661
        ]
      }
    },
    {
      "type": "Feature",
      "properties": {
        "norad_id": 30150,
        "name": "FENGYUN 1C DEB",
        "group": "fengyun-1c-debris",
        "lat": -24.723172982281206,
        "lon": -65.6500679118576,
        "alt_km": 1031.3041140619353,
        "timestamp": "2025-12-08T08:59:01.040031+00:00",
        "meta_object_name": "FENGYUN 1C DEB",
        "meta_object_id": "1999-025TF",
        "meta_epoch": "2025-12-07T07:50:26.968992",
        "meta_mean_motion": 13.86584176,
        "meta_eccentricity": 0.01466222,
        "meta_inclination": 98.9942,
        "meta_ra_of_asc_node": 117.5246,
        "meta_arg_of_pericenter": 350.8449,
        "meta_mean_anomaly": 28.5543,
        "meta_ephemeris_type": 0,
        "meta_classification_type": "U",
        "meta_norad_cat_id": 30150,
        "meta_element_set_no": 999,
        "meta_rev_at_epoch": 95383,
        "meta_bstar": 0.00076036673,
        "meta_mean_motion_dot": 9.19e-06,
        "meta_mean_motion_ddot": 0,
        "tle_line1": "1 30150U 99025TF  25341.32670103  .00000919  00000+0  76037-3 0  9995",
        "tle_line2": "2 30150  98.9942 117.5246 0146622 350.8449  28.5543 13.86584176953836"
      },
      "geometry": {
        "type": "Point",
        "coordinates": [
          -65.6500679118576,
          -24.723172982281206
        ]
      }
    },
    {
      "type": "Feature",
      "properties": {
        "norad_id": 30151,
        "name": "FENGYUN 1C DEB",
        "group": "fengyun-1c-debris",
        "lat": 42.248272616145954,
        "lon": -17.83535467475649,
        "alt_km": 988.5042808020771,
        "timestamp": "2025-12-08T08:59:01.040041+00:00",
        "meta_object_name": "FENGYUN 1C DEB",
        "meta_object_id": "1999-025TG",
        "meta_epoch": "2025-12-07T14:19:52.336992",
        "meta_mean_motion": 13.84461998,
        "meta_eccentricity": 0.01631973,
        "meta_inclination": 99.0632,
        "meta_ra_of_asc_node": 349.7501,
        "meta_arg_of_pericenter": 292.6512,
        "meta_mean_anomaly": 197.1527,
        "meta_ephemeris_type": 0,
        "meta_classification_type": "U",
        "meta_norad_cat_id": 30151,
        "meta_element_set_no": 999,
        "meta_rev_at_epoch": 95174,
        "meta_bstar": 0.0011087687,
        "meta_mean_motion_dot": 1.333e-05,
        "meta_mean_motion_ddot": 0,
        "tle_line1": "1 30151U 99025TG  25341.59713353  .00001333  00000+0  11088-2 0  9995",
        "tle_line2": "2 30151  99.0632 349.7501 0163197 292.6512 197.1527 13.84461998951745"
      },
      "geometry": {
        "type": "Point",
        "coordinates": [
          -17.83535467475649,
          42.248272616145954
        ]
      }
    },
    {
      "type": "Feature",
      "properties": {
        "norad_id": 30152,
        "name": "FENGYUN 1C DEB",
        "group": "fengyun-1c-debris",
        "lat": -28.86980989433759,
        "lon": -154.76293497055823,
        "alt_km": 980.040286543428,
        "timestamp": "2025-12-08T08:59:01.040052+00:00",
        "meta_object_name": "FENGYUN 1C DEB",
        "meta_object_id": "1999-025TH",
        "meta_epoch": "2025-12-07T21:05:22.711776",
        "meta_mean_motion": 13.96637194,
        "meta_eccentricity": 0.01614539,
        "meta_inclination": 99.0797,
        "meta_ra_of_asc_node": 199.6898,
        "meta_arg_of_pericenter": 98.7476,
        "meta_mean_anomaly": 263.201,
        "meta_ephemeris_type": 0,
        "meta_classification_type": "U",
        "meta_norad_cat_id": 30152,
        "meta_element_set_no": 999,
        "meta_rev_at_epoch": 95310,
        "meta_bstar": 0.0034682663,
        "meta_mean_motion_dot": 5.324e-05,
        "meta_mean_motion_ddot": 0,
        "tle_line1": "1 30152U 99025TH  25341.87873509  .00005324  00000+0  34683-2 0  9997",
        "tle_line2": "2 30152  99.0797 199.6898 0161453  98.7476 263.2010 13.96637194953106"
      },
      "geometry": {
        "type": "Point",
        "coordinates": [
          -154.76293497055823,
          -28.86980989433759
        ]
      }
    }
  ]
}